OBJECT_NAME,OBJECT_ID,EPOCH,MEAN_MOTION,ECCENTRICITY,INCLINATION,RA_OF_ASC_NODE,ARG_OF_PERICENTER,MEAN_ANOMALY,EPHEMERIS_TYPE,CLASSIFICATION_TYPE,NORAD_CAT_ID,ELEMENT_SET_NO,REV_AT_EPOCH,BSTAR,MEAN_MOTION_DOT,MEAN_MOTION_DDOT
KUIPER-00513,2026-140G,2026-07-13T10:42:14.228064,15.38127694,.0007367,51.8809,271.7204,331.9746,28.0843,0,U,69598,999,527,.20793E-3,.7544E-4,0
KUIPER-00516,2026-140H,2026-07-13T10:53:15.708192,15.37575900,.0006729,51.8784,271.7596,348.5810,11.5023,0,U,69599,999,527,.34543E-3,.12572E-3,0
KUIPER-00517,2026-140J,2026-07-13T11:54:57.841920,15.38808019,.0010804,51.8779,271.3024,285.7132,74.2664,0,U,69600,999,528,.54022E-3,.20755E-3,0
KUIPER-00520,2026-140K,2026-07-13T10:54:36.240768,15.37625651,.0006774,51.8819,271.7790,350.2506,9.8348,0,U,69601,999,527,.27007E-3,.9755E-4,0
KUIPER-00522,2026-140L,2026-07-13T10:16:30.504576,15.38633873,.0013481,51.8788,271.5961,257.5942,102.3537,0,U,69602,999,527,.4732E-3,.18038E-3,0
KUIPER-00528,2026-140M,2026-07-13T10:58:13.752768,15.37478073,.0005289,51.8780,271.7822,356.8638,3.2315,0,U,69603,999,527,.40948E-3,.14929E-3,0
KUIPER-00532,2026-140N,2026-07-13T11:12:57.352608,15.36572721,.0005709,51.8801,271.8505,25.8262,334.3009,0,U,69604,999,527,-.19589E-4,-.1101E-4,0
KUIPER-00533,2026-140P,2026-07-13T10:36:42.594624,15.38246977,.0007881,51.8795,271.6855,320.9499,39.0918,0,U,69605,999,527,.27596E-3,.10189E-3,0
KUIPER-00534,2026-140Q,2026-07-13T11:42:47.865600,15.38704340,.0013683,51.8817,271.2551,259.7255,100.2190,0,U,69606,999,528,.49181E-3,.18811E-3,0
KUIPER-00537,2026-140R,2026-07-13T10:10:01.767648,15.34217577,.0009654,51.8797,272.3084,48.0807,312.1000,0,U,69607,999,526,.65641E-3,.21784E-3,0
KUIPER-00538,2026-140S,2026-07-13T10:51:10.416096,15.37704823,.0006911,51.8807,271.7612,337.9709,22.0980,0,U,69608,999,527,.21275E-3,.7619E-4,0
KUIPER-00540,2026-140T,2026-07-13T11:07:05.657952,15.36947086,.0006492,51.8824,271.8330,18.5876,341.5347,0,U,69609,999,527,.32531E-3,.11571E-3,0
KUIPER-00541,2026-140U,2026-07-13T12:00:00.998784,15.38392412,.000769,51.8811,271.4184,318.1085,3.6149,0,U,69610,999,519,-.18057E-3,-.7345E-4,0
KUIPER-00542,2026-140V,2026-07-13T10:34:29.004672,15.38267694,.0007537,51.8779,271.6832,294.9408,65.0795,0,U,69611,999,527,.62044E-3,.23461E-3,0
KUIPER-00543,2026-140W,2026-07-13T11:13:27.480288,15.36825871,.0007255,51.8799,271.8471,31.7570,328.3853,0,U,69612,999,527,.49295E-3,.17683E-3,0
KUIPER-00544,2026-140X,2026-07-13T10:40:45.159168,15.38153379,.0006611,51.8785,271.7055,313.6004,46.4434,0,U,69613,999,527,.42036E-3,.15688E-3,0
KUIPER-00546,2026-140Y,2026-07-13T11:43:33.414816,15.38855435,.001454,51.8793,271.2530,256.4285,103.5083,0,U,69614,999,528,.45921E-3,.1763E-3,0
KUIPER-00547,2026-140Z,2026-07-13T10:31:56.349696,15.37892177,.0010935,51.8819,271.6758,283.9761,76.0010,0,U,69615,999,527,.28774E-3,.10524E-3,0
KUIPER-00549,2026-140AA,2026-07-13T11:00:24.109632,15.37321346,.0007851,51.8802,271.7979,10.3007,349.8139,0,U,69616,999,527,.39744E-3,.1441E-3,0
KUIPER-00550,2026-140AB,2026-07-13T12:00:00.998784,15.32067787,.0007801,51.8784,272.0819,56.7555,293.8282,0,U,69617,999,452,-.2905E-3,-.9497E-4,0
KUIPER-00551,2026-140AC,2026-07-13T10:20:39.543936,15.38372797,.0012862,51.8767,271.6138,258.5596,101.3947,0,U,69618,999,527,.65439E-3,.24901E-3,0
KUIPER-00554,2026-140AD,2026-07-13T08:55:48.396288,15.37954532,.0011047,51.8784,271.9686,284.4543,75.5218,0,U,69619,999,526,.35644E-3,.13165E-3,0
KUIPER-00555,2026-140AE,2026-07-13T10:25:28.602048,15.37923651,.0011419,51.8817,271.6476,272.6291,87.3389,0,U,69620,999,527,.293E-3,.10737E-3,0
KUIPER-00556,2026-140AF,2026-07-12T20:22:38.974944,15.37854962,.001062,51.8804,274.4699,249.9236,110.0608,0,U,69621,999,518,-.48964841E-2,-.181525E-2,0
KUIPER-00557,2026-140AG,2026-07-13T10:37:04.840896,15.37501873,.0009795,51.8797,271.6977,292.8339,67.1613,0,U,69622,999,527,.37277E-3,.13577E-3,0
KUIPER-00560,2026-140AH,2026-07-13T10:24:26.625600,15.38539344,.0010496,51.8787,271.6344,273.7935,86.1852,0,U,69623,999,527,-.536E-2,-.202603E-2,0
KUIPER-00561,2026-140AJ,2026-07-11T17:56:40.634592,15.38107852,.00092458,51.8826,279.8412,285.6749,74.3218,0,U,69624,999,501,-.15960765E-1,-.566727E-2,0
KUIPER-00564,2026-140AK,2026-07-13T10:32:13.934688,15.37234658,.0009106,51.8803,271.6737,291.5135,68.4880,0,U,69625,999,527,-.74902E-3,-.28077E-3,0
KUIPER-00567,2026-140AL,2026-07-13T10:21:31.334688,15.38220368,.0011778,51.8817,271.6217,274.1062,85.8579,0,U,69626,999,527,.38233E-3,.14281E-3,0
KUIPER-00573,2026-140AM,2026-07-13T10:42:30.130848,15.37446650,.0009313,51.8781,271.7133,278.9013,81.0919,0,U,69627,999,527,.35726E-3,.12969E-3,0
